{
  "type": "FeatureCollection",
  "features": [
    {
      "type": "Feature",
      "properties": {
        "norad_id": 66884,
        "name": "STARLINK-36057",
        "group": "last-30-days",
        "lat": 0.8399190843908502,
        "lon": -151.70610177877617,
        "alt_km": 347.68798443032665,
        "timestamp": "2025-12-21T16:47:53.450986+00:00",
        "meta_object_name": "STARLINK-36057",
        "meta_object_id": "2025-283G",
        "meta_epoch": "2025-12-21T12:00:02.000160",
        "meta_mean_motion": 15.74204502,
        "meta_eccentricity": 0.0001109,
        "meta_inclination": 53.1575,
        "meta_ra_of_asc_node": 29.9161,
        "meta_arg_of_pericenter": 91.2819,
        "meta_mean_anomaly": 34.0324,
        "meta_ephemeris_type": 0,
        "meta_classification_type": "U",
        "meta_norad_cat_id": 66884,
        "meta_element_set_no": 999,
        "meta_rev_at_epoch": 383,
        "meta_bstar": -0.00016346,
        "meta_mean_motion_dot": -0.00024514,
        "meta_mean_motion_ddot": 0,
        "tle_line1": "1 66884U 25283G   25355.50002315 -.00024514  00000+0 -16346-3 0  9998",
        "tle_line2": "2 66884  53.1575  29.9161 0001109  91.2819  34.0324 15.74204502  3839"
      },
      "geometry": {
        "type": "Point",
        "coordinates": [
          -151.70610177877617,
          0.8399190843908502
        ]
      }
    },
    {
      "type": "Feature",
      "properties": {
        "norad_id": 66885,
        "name": "STARLINK-35954",
        "group": "last-30-days",
        "lat": 2.370320255798639,
        "lon": -152.85084993046553,
        "alt_km": 347.55691099262003,
        "timestamp": "2025-12-21T16:47:53.450996+00:00",
        "meta_object_name": "STARLINK-35954",
        "meta_object_id": "2025-283H",
        "meta_epoch": "2025-12-21T12:00:02.000160",
        "meta_mean_motion": 15.74200309,
        "meta_eccentricity": 0.0001077,
        "meta_inclination": 53.1574,
        "meta_ra_of_asc_node": 29.9201,
        "meta_arg_of_pericenter": 82.3894,
        "meta_mean_anomaly": 41.0118,
        "meta_ephemeris_type": 0,
        "meta_classification_type": "U",
        "meta_norad_cat_id": 66885,
        "meta_element_set_no": 999,
        "meta_rev_at_epoch": 383,
        "meta_bstar": 9.2754e-06,
        "meta_mean_motion_dot": 7.3e-06,
        "meta_mean_motion_ddot": 0,
        "tle_line1": "1 66885U 25283H   25355.50002315  .00000730  00000+0  92754-5 0  9990",
        "tle_line2": "2 66885  53.1574  29.9201 0001077  82.3894  41.0118 15.74200309  3832"
      },
      "geometry": {
        "type": "Point",
        "coordinates": [
          -152.85084993046553,
          2.370320255798639
        ]
      }
    },
    {
      "type": "Feature",
      "properties": {
        "norad_id": 66886,
        "name": "STARLINK-35900",
        "group": "last-30-days",
        "lat": -0.6934340579250579,
        "lon": -150.5608924350701,
        "alt_km": 348.02249971972924,
        "timestamp": "2025-12-21T16:47:53.451006+00:00",
        "meta_object_name": "STARLINK-35900",
        "meta_object_id": "2025-283J",
        "meta_epoch": "2025-12-21T12:00:02.000160",
        "meta_mean_motion": 15.74192947,
        "meta_eccentricity": 0.0001041,
        "meta_inclination": 53.1574,
        "meta_ra_of_asc_node": 29.9115,
        "meta_arg_of_pericenter": 83.0886,
        "meta_mean_anomaly": 44.1479,
        "meta_ephemeris_type": 0,
        "meta_classification_type": "U",
        "meta_norad_cat_id": 66886,
        "meta_element_set_no": 999,
        "meta_rev_at_epoch": 383,
        "meta_bstar": -1.1072e-05,
        "meta_mean_motion_dot": -2.25e-05,
        "meta_mean_motion_ddot": 0,
        "tle_line1": "1 66886U 25283J   25355.50002315 -.00002250  00000+0 -11072-4 0  9995",
        "tle_line2": "2 66886  53.1574  29.9115 0001041  83.0886  44.1479 15.74192947  3839"
      },
      "geometry": {
        "type": "Point",
        "coordinates": [
          -150.5608924350701,
          -0.6934340579250579
        ]
      }
    },
    {
      "type": "Feature",
      "properties": {
        "norad_id": 66887,
        "name": "STARLINK-35925",
        "group": "last-30-days",
        "lat": -2.226143062539103,
        "lon": -149.41432575337672,
        "alt_km": 348.3417736872416,
        "timestamp": "2025-12-21T16:47:53.451016+00:00",
        "meta_object_name": "STARLINK-35925",
        "meta_object_id": "2025-283K",
        "meta_epoch": "2025-12-21T12:00:02.000160",
        "meta_mean_motion": 15.74198806,
        "meta_eccentricity": 9.68e-05,
        "meta_inclination": 53.1576,
        "meta_ra_of_asc_node": 29.9078,
        "meta_arg_of_pericenter": 74.667,
        "meta_mean_anomaly": 54.4864,
        "meta_ephemeris_type": 0,
        "meta_classification_type": "U",
        "meta_norad_cat_id": 66887,
        "meta_element_set_no": 999,
        "meta_rev_at_epoch": 383,
        "meta_bstar": -0.0001994,
        "meta_mean_motion_dot": -0.00029741,
        "meta_mean_motion_ddot": 0,
        "tle_line1": "1 66887U 25283K   25355.50002315 -.00029741  00000+0 -19940-3 0  9991",
        "tle_line2": "2 66887  53.1576  29.9078 0000968  74.6670  54.4864 15.74198806  3836"
      },
      "geometry": {
        "type": "Point",
        "coordinates": [
          -149.41432575337672,
          -2.226143062539103
        ]
      }
    },
    {
      "type": "Feature",
      "properties": {
        "norad_id": 66888,
        "name": "STARLINK-35919",
        "group": "last-30-days",
        "lat": -3.761175630013149,
        "lon": -148.26320410562306,
        "alt_km": 348.5453908161471,
        "timestamp": "2025-12-21T16:47:53.451028+00:00",
        "meta_object_name": "STARLINK-35919",
        "meta_object_id": "2025-283L",
        "meta_epoch": "2025-12-21T12:00:02.000160",
        "meta_mean_motion": 15.74200082,
        "meta_eccentricity": 0.0001057,
        "meta_inclination": 53.1572,
        "meta_ra_of_asc_node": 29.9038,
        "meta_arg_of_pericenter": 77.155,
        "meta_mean_anomaly": 53.9174,
        "meta_ephemeris_type": 0,
        "meta_classification_type": "U",
        "meta_norad_cat_id": 66888,
        "meta_element_set_no": 999,
        "meta_rev_at_epoch": 383,
        "meta_bstar": -0.00024231,
        "meta_mean_motion_dot": -0.00035982,
        "meta_mean_motion_ddot": 0,
        "tle_line1": "1 66888U 25283L   25355.50002315 -.00035982  00000+0 -24231-3 0  9995",
        "tle_line2": "2 66888  53.1572  29.9038 0001057  77.1550  53.9174 15.74200082  3832"
      },
      "geometry": {
        "type": "Point",
        "coordinates": [
          -148.26320410562306,
          -3.761175630013149
        ]
      }
    },
    {
      "type": "Feature",
      "properties": {
        "norad_id": 66889,
        "name": "STARLINK-35852",
        "group": "last-30-days",
        "lat": -5.2909039966176685,
        "lon": -147.11129309203878,
        "alt_km": 348.49107503849064,
        "timestamp": "2025-12-21T16:47:53.451040+00:00",
        "meta_object_name": "STARLINK-35852",
        "meta_object_id": "2025-283M",
        "meta_epoch": "2025-12-21T12:00:02.000160",
        "meta_mean_motion": 15.74203722,
        "meta_eccentricity": 0.0001026,
        "meta_inclination": 53.1572,
        "meta_ra_of_asc_node": 29.8994,
        "meta_arg_of_pericenter": 96.7656,
        "meta_mean_anomaly": 36.2177,
        "meta_ephemeris_type": 0,
        "meta_classification_type": "U",
        "meta_norad_cat_id": 66889,
        "meta_element_set_no": 999,
        "meta_rev_at_epoch": 383,
        "meta_bstar": -0.00015891,
        "meta_mean_motion_dot": -0.0002385,
        "meta_mean_motion_ddot": 0,
        "tle_line1": "1 66889U 25283M   25355.50002315 -.00023850  00000+0 -15891-3 0  9999",
        "tle_line2": "2 66889  53.1572  29.8994 0001026  96.7656  36.2177 15.74203722  3834"
      },
      "geometry": {
        "type": "Point",
        "coordinates": [
          -147.11129309203878,
          -5.2909039966176685
        ]
      }
    },
    {
      "type": "Feature",
      "properties": {
        "norad_id": 66890,
        "name": "STARLINK-35885",
        "group": "last-30-days",
        "lat": -6.821488449146368,
        "lon": -145.95067747961426,
        "alt_km": 348.73044204125927,
        "timestamp": "2025-12-21T16:47:53.451050+00:00",
        "meta_object_name": "STARLINK-35885",
        "meta_object_id": "2025-283N",
        "meta_epoch": "2025-12-21T12:00:02.000160",
        "meta_mean_motion": 15.74209143,
        "meta_eccentricity": 0.0001091,
        "meta_inclination": 53.1574,
        "meta_ra_of_asc_node": 29.8957,
        "meta_arg_of_pericenter": 95.5889,
        "meta_mean_anomaly": 39.3137,
        "meta_ephemeris_type": 0,
        "meta_classification_type": "U",
        "meta_norad_cat_id": 66890,
        "meta_element_set_no": 999,
        "meta_rev_at_epoch": 383,
        "meta_bstar": -0.00037864,
        "meta_mean_motion_dot": -0.00055764,
        "meta_mean_motion_ddot": 0,
        "tle_line1": "1 66890U 25283N   25355.50002315 -.00055764  00000+0 -37864-3 0  9994",
        "tle_line2": "2 66890  53.1574  29.8957 0001091  95.5889  39.3137 15.74209143  3837"
      },
      "geometry": {
        "type": "Point",
        "coordinates": [
          -145.95067747961426,
          -6.821488449146368
        ]
      }
    }
  ]
}